[{"OBJECT_NAME":"STARLINK-2469","OBJECT_ID":"2021-027AN","EPOCH":"2026-03-09T09:17:04.188192","MEAN_MOTION":15.1882832,"ECCENTRICITY":0.0001315,"INCLINATION":53.1065,"RA_OF_ASC_NODE":102.3811,"ARG_OF_PERICENTER":92.2024,"MEAN_ANOMALY":267.9122,"EPHEMERIS_TYPE":0,"CLASSIFICATION_TYPE":"U","NORAD_CAT_ID":48128,"ELEMENT_SET_NO":999,"REV_AT_EPOCH":27335,"BSTAR":0.0010578489,"MEAN_MOTION_DOT":0.00022048,"MEAN_MOTION_DDOT":0},{"OBJECT_NAME":"COSMOS 2251 DEB","OBJECT_ID":"1993-036PY","EPOCH":"2026-03-09T13:11:45.503808","MEAN_MOTION":15.22484141,"ECCENTRICITY":0.00131116,"INCLINATION":74.0261,"RA_OF_ASC_NODE":116.9532,"ARG_OF_PERICENTER":282.9414,"MEAN_ANOMALY":196.3811,"EPHEMERIS_TYPE":0,"CLASSIFICATION_TYPE":"U","NORAD_CAT_ID":34383,"ELEMENT_SET_NO":999,"REV_AT_EPOCH":90428,"BSTAR":0.0028700217,"MEAN_MOTION_DOT":0.00067222,"MEAN_MOTION_DDOT":0}]
